{
  "type": "FeatureCollection",
  "features": [
    {
      "type": "Feature",
      "properties": {
        "norad_id": 34765,
        "name": "IRIDIUM 33 DEB",
        "group": "iridium-33-debris",
        "lat": -39.25775705425276,
        "lon": -146.0248007973638,
        "alt_km": 753.0675798485127,
        "timestamp": "2025-12-16T21:38:57.560113+00:00",
        "meta_object_name": "IRIDIUM 33 DEB",
        "meta_object_id": "1997-051LJ",
        "meta_epoch": "2025-12-15T13:40:10.093728",
        "meta_mean_motion": 14.40472042,
        "meta_eccentricity": 0.00157365,
        "meta_inclination": 86.3391,
        "meta_ra_of_asc_node": 31.5475,
        "meta_arg_of_pericenter": 201.7387,
        "meta_mean_anomaly": 311.9184,
        "meta_ephemeris_type": 0,
        "meta_classification_type": "U",
        "meta_norad_cat_id": 34765,
        "meta_element_set_no": 999,
        "meta_rev_at_epoch": 87654,
        "meta_bstar": 0.00038671785,
        "meta_mean_motion_dot": 1.25e-05,
        "meta_mean_motion_ddot": 0,
        "tle_line1": "1 34765U 97051LJ  25349.56956127  .00001250  00000+0  38672-3 0  9997",
        "tle_line2": "2 34765  86.3391  31.5475 0015736 201.7387 311.9184 14.40472042876547"
      },
      "geometry": {
        "type": "Point",
        "coordinates": [
          -146.0248007973638,
          -39.25775705425276
        ]
      }
    },
    {
      "type": "Feature",
      "properties": {
        "norad_id": 34833,
        "name": "IRIDIUM 33 DEB",
        "group": "iridium-33-debris",
        "lat": 36.53604826012616,
        "lon": -133.47787718871956,
        "alt_km": 707.082373678134,
        "timestamp": "2025-12-16T21:38:57.560122+00:00",
        "meta_object_name": "IRIDIUM 33 DEB",
        "meta_object_id": "1997-051MH",
        "meta_epoch": "2025-12-15T10:20:22.808256",
        "meta_mean_motion": 14.52396502,
        "meta_eccentricity": 0.00217393,
        "meta_inclination": 86.3936,
        "meta_ra_of_asc_node": 49.8343,
        "meta_arg_of_pericenter": 90.4638,
        "meta_mean_anomaly": 284.9984,
        "meta_ephemeris_type": 0,
        "meta_classification_type": "U",
        "meta_norad_cat_id": 34833,
        "meta_element_set_no": 999,
        "meta_rev_at_epoch": 87754,
        "meta_bstar": 0.00054738094,
        "meta_mean_motion_dot": 2.256e-05,
        "meta_mean_motion_ddot": 0,
        "tle_line1": "1 34833U 97051MH  25349.43081954  .00002256  00000+0  54738-3 0  9994",
        "tle_line2": "2 34833  86.3936  49.8343 0021739  90.4638 284.9984 14.52396502877543"
      },
      "geometry": {
        "type": "Point",
        "coordinates": [
          -133.47787718871956,
          36.53604826012616
        ]
      }
    },
    {
      "type": "Feature",
      "properties": {
        "norad_id": 34870,
        "name": "IRIDIUM 33 DEB",
        "group": "iridium-33-debris",
        "lat": 64.34668209296863,
        "lon": 124.45461627514989,
        "alt_km": 626.9856722042159,
        "timestamp": "2025-12-16T21:38:57.560132+00:00",
        "meta_object_name": "IRIDIUM 33 DEB",
        "meta_object_id": "1997-051MQ",
        "meta_epoch": "2025-12-15T20:52:07.322880",
        "meta_mean_motion": 14.7649675,
        "meta_eccentricity": 0.00166647,
        "meta_inclination": 86.3098,
        "meta_ra_of_asc_node": 312.6504,
        "meta_arg_of_pericenter": 171.0618,
        "meta_mean_anomaly": 219.7465,
        "meta_ephemeris_type": 0,
        "meta_classification_type": "U",
        "meta_norad_cat_id": 34870,
        "meta_element_set_no": 999,
        "meta_rev_at_epoch": 88957,
        "meta_bstar": 0.0009319058,
        "meta_mean_motion_dot": 6.529e-05,
        "meta_mean_motion_ddot": 0,
        "tle_line1": "1 34870U 97051MQ  25349.86952920  .00006529  00000+0  93191-3 0  9995",
        "tle_line2": "2 34870  86.3098 312.6504 0016664 171.0618 219.7465 14.76496750889576"
      },
      "geometry": {
        "type": "Point",
        "coordinates": [
          124.45461627514989,
          64.34668209296863
        ]
      }
    },
    {
      "type": "Feature",
      "properties": {
        "norad_id": 34896,
        "name": "IRIDIUM 33 DEB",
        "group": "iridium-33-debris",
        "lat": 15.644425334554494,
        "lon": 143.78783914125,
        "alt_km": 659.4417255083572,
        "timestamp": "2025-12-16T21:38:57.560142+00:00",
        "meta_object_name": "IRIDIUM 33 DEB",
        "meta_object_id": "1997-051MY",
        "meta_epoch": "2025-12-16T04:34:33.251232",
        "meta_mean_motion": 14.66314014,
        "meta_eccentricity": 0.00246953,
        "meta_inclination": 86.3284,
        "meta_ra_of_asc_node": 325.1372,
        "meta_arg_of_pericenter": 201.8046,
        "meta_mean_anomaly": 169.754,
        "meta_ephemeris_type": 0,
        "meta_classification_type": "U",
        "meta_norad_cat_id": 34896,
        "meta_element_set_no": 999,
        "meta_rev_at_epoch": 87670,
        "meta_bstar": 0.00064317524,
        "meta_mean_motion_dot": 3.586e-05,
        "meta_mean_motion_ddot": 0,
        "tle_line1": "1 34896U 97051MY  25350.19066263  .00003586  00000+0  64318-3 0  9996",
        "tle_line2": "2 34896  86.3284 325.1372 0024695 201.8046 169.7540 14.66314014876703"
      },
      "geometry": {
        "type": "Point",
        "coordinates": [
          143.78783914125,
          15.644425334554494
        ]
      }
    },
    {
      "type": "Feature",
      "properties": {
        "norad_id": 34926,
        "name": "IRIDIUM 33 DEB",
        "group": "iridium-33-debris",
        "lat": 74.59242823509688,
        "lon": 20.55358671051571,
        "alt_km": 752.2704470848248,
        "timestamp": "2025-12-16T21:38:57.560153+00:00",
        "meta_object_name": "IRIDIUM 33 DEB",
        "meta_object_id": "1997-051NF",
        "meta_epoch": "2025-12-16T08:25:13.158336",
        "meta_mean_motion": 14.54585993,
        "meta_eccentricity": 0.00748287,
        "meta_inclination": 86.1325,
        "meta_ra_of_asc_node": 6.5997,
        "meta_arg_of_pericenter": 280.2955,
        "meta_mean_anomaly": 149.8924,
        "meta_ephemeris_type": 0,
        "meta_classification_type": "U",
        "meta_norad_cat_id": 34926,
        "meta_element_set_no": 999,
        "meta_rev_at_epoch": 86509,
        "meta_bstar": 0.0039351708,
        "meta_mean_motion_dot": 0.0001748,
        "meta_mean_motion_ddot": 0,
        "tle_line1": "1 34926U 97051NF  25350.35084674  .00017480  00000+0  39352-2 0  9991",
        "tle_line2": "2 34926  86.1325   6.5997 0074828 280.2955 149.8924 14.54585993865095"
      },
      "geometry": {
        "type": "Point",
        "coordinates": [
          20.55358671051571,
          74.59242823509688
        ]
      }
    },
    {
      "type": "Feature",
      "properties": {
        "norad_id": 34985,
        "name": "IRIDIUM 33 DEB",
        "group": "iridium-33-debris",
        "lat": 12.537181422377639,
        "lon": 55.913109906847154,
        "alt_km": 767.7309766084745,
        "timestamp": "2025-12-16T21:38:57.560163+00:00",
        "meta_object_name": "IRIDIUM 33 DEB",
        "meta_object_id": "1997-051NR",
        "meta_epoch": "2025-12-15T23:04:55.240608",
        "meta_mean_motion": 14.42024534,
        "meta_eccentricity": 0.00210591,
        "meta_inclination": 86.3698,
        "meta_ra_of_asc_node": 55.5052,
        "meta_arg_of_pericenter": 208.7794,
        "meta_mean_anomaly": 325.5524,
        "meta_ephemeris_type": 0,
        "meta_classification_type": "U",
        "meta_norad_cat_id": 34985,
        "meta_element_set_no": 999,
        "meta_rev_at_epoch": 87221,
        "meta_bstar": 0.00049841253,
        "meta_mean_motion_dot": 1.659e-05,
        "meta_mean_motion_ddot": 0,
        "tle_line1": "1 34985U 97051NR  25349.96175047  .00001659  00000+0  49841-3 0  9992",
        "tle_line2": "2 34985  86.3698  55.5052 0021059 208.7794 325.5524 14.42024534872212"
      },
      "geometry": {
        "type": "Point",
        "coordinates": [
          55.913109906847154,
          12.537181422377639
        ]
      }
    },
    {
      "type": "Feature",
      "properties": {
        "norad_id": 35051,
        "name": "IRIDIUM 33 DEB",
        "group": "iridium-33-debris",
        "lat": 28.826817124344366,
        "lon": 9.076059908420454,
        "alt_km": 727.0098771038702,
        "timestamp": "2025-12-16T21:38:57.560174+00:00",
        "meta_object_name": "IRIDIUM 33 DEB",
        "meta_object_id": "1997-051NX",
        "meta_epoch": "2025-12-11T08:47:57.045408",
        "meta_mean_motion": 14.47588957,
        "meta_eccentricity": 0.00106566,
        "meta_inclination": 86.3243,
        "meta_ra_of_asc_node": 9.4603,
        "meta_arg_of_pericenter": 94.8899,
        "meta_mean_anomaly": 265.3522,
        "meta_ephemeris_type": 0,
        "meta_classification_type": "U",
        "meta_norad_cat_id": 35051,
        "meta_element_set_no": 999,
        "meta_rev_at_epoch": 86976,
        "meta_bstar": 0.001042299,
        "meta_mean_motion_dot": 3.858e-05,
        "meta_mean_motion_ddot": 0,
        "tle_line1": "1 35051U 97051NX  25345.36663247  .00003858  00000+0  10423-2 0  9997",
        "tle_line2": "2 35051  86.3243   9.4603 0010656  94.8899 265.3522 14.47588957869768"
      },
      "geometry": {
        "type": "Point",
        "coordinates": [
          9.076059908420454,
          28.826817124344366
        ]
      }
    }
  ]
}